ONEWEB-0260             
1 48978U 21060M   25342.26094906  .00000155  00000+0  37080-3 0  9998
2 48978  87.9032 266.8119 0001927  86.7343 273.4008 13.16593980214488
ONEWEB-0261             
1 48979U 21060N   25342.30685211  .00000149  00000+0  35630-3 0  9991
2 48979  87.9033 266.8047 0002147  72.4618 287.6748 13.16592338214543
ONEWEB-0262             
1 48980U 21060P   25342.28706519  .00000085  00000+0  18847-3 0  9995
2 48980  87.9045 266.7818 0001770  64.4645 295.6669 13.16595046214501
ONEWEB-0263             
1 48981U 21060Q   25342.24273329  .00000220  00000+0  54113-3 0  9997
2 48981  87.9039 266.8053 0002110  69.0236 291.1121 13.16595244214462
ONEWEB-0264             
1 48982U 21060R   25342.27992910 -.00000223  00000+0 -61589-3 0  9995
2 48982  87.9037 266.8016 0001998  77.9074 282.2281 13.16594414214478
ONEWEB-0266             
1 48984U 21060T   25342.30131757  .00000014  00000+0  24448-5 0  9996
2 48984  87.9045 266.7828 0001619  70.5216 289.6090 13.16595305214464
ONEWEB-0267             
1 48985U 21060U   25342.31238580  .00000264  00000+0  65601-3 0  9991
2 48985  87.9039 266.7797 0001939  72.0232 288.1110 13.16597218214476
ONEWEB-0268             
1 48986U 21060V   25342.28073410  .00000034  00000+0  55240-4 0  9991
2 48986  87.9044 266.7948 0001782  75.9809 284.1520 13.16595323214734
ONEWEB-0269             
1 48987U 21060W   25342.26172811  .00000162  00000+0  38975-3 0  9992
2 48987  87.9034 266.8207 0001681  81.5113 278.6209 13.16596444214504
ONEWEB-0270             
1 48988U 21060X   25342.27914799  .00000062  00000+0  12806-3 0  9997
2 48988  87.9045 266.7965 0002023  64.2951 295.8388 13.16596228214549
ONEWEB-0271             
1 48989U 21060Y   25342.26649371  .00000144  00000+0  34191-3 0  9990
2 48989  87.9049 266.7876 0001996  72.3378 287.7971 13.16594574214546
ONEWEB-0272             
1 48990U 21060Z   25342.28865349  .00000100  00000+0  22671-3 0  9991
2 48990  87.9037 266.7995 0002014  78.2980 281.8377 13.16595663214492
ONEWEB-0273             
1 48991U 21060AA  25342.31081375  .00000066  00000+0  13896-3 0  9995
2 48991  87.9043 266.7902 0001861  70.5653 289.5679 13.16595898214477
ONEWEB-0274             
1 48992U 21060AB  25342.26015323  .00000149  00000+0  35660-3 0  9995
2 48992  87.9033 266.8232 0001961  83.9054 276.2300 13.16594461214501
ONEWEB-0275             
1 48993U 21060AC  25342.24907012  .00000206  00000+0  50403-3 0  9995
2 48993  87.9043 266.7958 0001857  75.6755 284.4582 13.16594226214431
ONEWEB-0276             
1 48994U 21060AD  25342.28231539  .00000022  00000+0  25238-4 0  9999
2 48994  87.9047 266.7888 0001723  67.8956 292.2357 13.16594962214452
